{
  "norad_id": 58158,
  "name": "STARLINK-30829",
  "history": [
    {
      "epoch": "2026-03-28T19:31:45.459840",
      "apogee_km": 476.01257357661325,
      "perigee_km": 474.45658409335465,
      "latitude_deg": 52.15451301424371,
      "longitude_deg": 73.9171776000876,
      "semi_major_axis_km": 6853.371578834984,
      "eccentricity": 0.00011352,
      "inclination_deg": 53.1607,
      "raan_deg": 131.038,
      "arg_perigee_deg": 78.3015,
      "mean_anomaly_deg": 281.8113,
      "mean_motion_rev_day": 15.30193466
    },
    {
      "epoch": "2026-03-29T03:22:01.091424",
      "apogee_km": 475.98769150482894,
      "perigee_km": 474.4470574414481,
      "latitude_deg": 34.554637578716694,
      "longitude_deg": 105.2678793601226,
      "semi_major_axis_km": 6853.354374473139,
      "eccentricity": 0.0001124,
      "inclination_deg": 53.1601,
      "raan_deg": 129.5203,
      "arg_perigee_deg": 75.9762,
      "mean_anomaly_deg": 284.1364,
      "mean_motion_rev_day": 15.30199228
    }
  ]
}